,colony,street,street_number,postal_code,zone,directions,lat,lon
150,FRACC CUSPIDE,VALLE DE TESIST,198,45200,Zapopan,"VALLE DE TESIST 198, FRACC CUSPIDE, Zapopan",20.795812,-103.4822218
131,FEDERALISMO,MONTE HIMALAYA,1416,44350,Guadalajara,"MONTE HIMALAYA 1416, FEDERALISMO, Guadalajara",20.691592,-103.317129
204,REAL DE VALDEPE?S,ALAMBIQUE,51,45130,Zapopan,"ALAMBIQUE 51, REAL DE VALDEPE?S, Zapopan",20.7560515,-103.4015362
192,REAL DE VALDEPE?S,CALLE G 1470 TO,1470,45130,Zapopan,"CALLE G 1470 TO 1470, REAL DE VALDEPE?S, Zapopan",20.75259018,-103.4048233
84,TETLAN,JOSE RAMOS,4342,44820,Guadalajara,"JOSE RAMOS 4342, TETLAN, Guadalajara",20.6609958,-103.2714154
62,SAN VICENTE,MONTES MARCIANO,2173,44330,Guadalajara,"MONTES MARCIANO 2173, SAN VICENTE, Guadalajara",20.70378,-103.3159849
30,EL MANANTIAL S REFOR,AVDE LA PATRIA,202,44470,Guadalajara,"AVDE LA PATRIA 202, EL MANANTIAL S REFOR, Guadalajara",20.621289,-103.342166
196,AGRICOLA,OBELISCO,138,45236,Zapopan,"OBELISCO 138, AGRICOLA, Zapopan",20.616065,-103.432436
155,VILLA FONTANA DIAMANTE,FUENTE BRILLANT,1730,45200,Zapopan,"FUENTE BRILLANT 1730, VILLA FONTANA DIAMANTE, Zapopan",20.7737514,-103.4720222
253,NUEVO MEXICO,6 DE ENERO,3239,45138,Zapopan,"6 DE ENERO 3239, NUEVO MEXICO, Zapopan",20.75714709,-103.43247582
43,ARTESANOS,INDEPENDENCIA,919,44200,Guadalajara,"INDEPENDENCIA 919, ARTESANOS, Guadalajara",20.678064,-103.356838
46,MIRAVALLE II,PEDRO PATINO,643,44990,Guadalajara,"PEDRO PATINO 643, MIRAVALLE II, Guadalajara",20.6069021,-103.3496879
254,EL BATAN,ALCALDE,288,45190,Zapopan,"ALCALDE 288, EL BATAN, Zapopan",20.721075,-103.345678
262,LINDAVISTA,ALLENDE,216,45169,Zapopan,"ALLENDE 216, LINDAVISTA, Zapopan",20.721194,-103.3988204
68,CIRCUNVAL VALLARTA,REFORMA,2749,44680,Guadalajara,"REFORMA 2749, CIRCUNVAL VALLARTA, Guadalajara",20.6804909,-103.3859638
232,LAS AGUILAS,RIO TOMATLAN,800,45080,Zapopan,"RIO TOMATLAN 800, LAS AGUILAS, Zapopan",20.625904,-103.407993
82,MEZQUITAN COUNTRY,DIAGONAL NAJERA,1876,44260,Guadalajara,"DIAGONAL NAJERA 1876, MEZQUITAN COUNTRY, Guadalajara",20.69196018,-103.3647616
266,EL ZAPOTE,TEZOZOMOC,4357,45050,Zapopan,"TEZOZOMOC 4357, EL ZAPOTE, Zapopan",20.6546574,-103.4153864
231,RESIDENCIAL TESISTAN,AV SAN MATEO,1115,45200,Zapopan,"AV SAN MATEO 1115, RESIDENCIAL TESISTAN, Zapopan",20.7943479,-103.4683674
7,MODERNA,AV ESPANA,1092,44190,Guadalajara,"AV ESPANA 1092, MODERNA, Guadalajara",20.659424,-103.3531261
169,VILLAS SAN IGNACIO,PRIV LUIS G MON,337,45180,Zapopan,"PRIV LUIS G MON 337, VILLAS SAN IGNACIO, Zapopan",20.73366544,-103.35291841
233,TABACHINES,PASEO DE LOS CH,3040,45188,Zapopan,"PASEO DE LOS CH 3040, TABACHINES, Zapopan",20.7373844,-103.3639798
63,MIRAVALLE,JOSE JARAMILLO,526,44990,Guadalajara,"JOSE JARAMILLO 526, MIRAVALLE, Guadalajara",20.6156665,-103.3528171
9,GENERAL REAL,MARCONI,17,44400,Guadalajara,"MARCONI 17, GENERAL REAL, Guadalajara",20.6682228,-103.3242311
239,LA PALMITA,MANUEL GONZALEZ,518,45180,Zapopan,"MANUEL GONZALEZ 518, LA PALMITA, Zapopan",20.7300639,-103.358865
225,MESA COLORADA PTE,NABO,543,45189,Zapopan,"NABO 543, MESA COLORADA PTE, Zapopan",20.763,-103.34626
23,BALCONES DE OBLATOS,HACIENDA DEL CA,2275,44720,Guadalajara,"HACIENDA DEL CA 2275, BALCONES DE OBLATOS, Guadalajara",20.68696384,-103.28869462
168,PARAISOS DEL COLLY,GALEANA,1068,45069,Zapopan,"GALEANA 1068, PARAISOS DEL COLLY, Zapopan",20.6508438,-103.4542078
12,BEATRIZ HERNANDEZ,MARGARITA GUTIE,3497,44760,Guadalajara,"MARGARITA GUTIE 3497, BEATRIZ HERNANDEZ, Guadalajara",20.6814079,-103.284874
34,MORELOS,PELICANO,1272,44910,Guadalajara,"PELICANO 1272, MORELOS, Guadalajara",20.6506979,-103.360933
187,UNIDAD MEXICO,CDA QUERETARO,278,45120,Zapopan,"CDA QUERETARO 278, UNIDAD MEXICO, Zapopan",20.6804779,-103.4039896
172,JARDINES DEL VERGEL,JARDIN DE NARDO,1527,45180,Zapopan,"JARDIN DE NARDO 1527, JARDINES DEL VERGEL, Zapopan",20.7437494,-103.3705966
136,MIRAVALLE,MAURICIO CAMPOS,512,44990,Guadalajara,"MAURICIO CAMPOS 512, MIRAVALLE, Guadalajara",20.6094738,-103.3478201
250,TIERRA RESIDENCIAL,SAN MATEO,2010,45200,Zapopan,"SAN MATEO 2010, TIERRA RESIDENCIAL, Zapopan",20.8026474,-103.4705006
110,OBLATOS PONIENTE,HDA LAS CRUCES,2158,44700,Guadalajara,"HDA LAS CRUCES 2158, OBLATOS PONIENTE, Guadalajara",20.69361,-103.2988478
58,RESIDENCIAL LA CRUZ,ISLA ABACO,3086,44950,Guadalajara,"ISLA ABACO 3086, RESIDENCIAL LA CRUZ, Guadalajara",20.637418,-103.37829
208,RESIDENCIAL AZALEAS,SERVIDOR PUBLIC,1425,45230,Zapopan,"SERVIDOR PUBLIC 1425, RESIDENCIAL AZALEAS, Zapopan",20.61696815,-103.44837189
67,LOMAS DE POLANCO,RAMON ALCORTA,1597,44960,Guadalajara,"RAMON ALCORTA 1597, LOMAS DE POLANCO, Guadalajara",20.6305508,-103.3684773
252,CIUDAD DEL SOL,QUETZALCOATL,232,45050,Zapopan,"QUETZALCOATL 232, CIUDAD DEL SOL, Zapopan",20.6492751,-103.4071483
194,COLINAS DE ATEMAJAC,AV AURELIO ORTE,1176,45170,Zapopan,"AV AURELIO ORTE 1176, COLINAS DE ATEMAJAC, Zapopan",20.7213469,-103.3671295
98,AMERICANA,COLONIAS,221,44160,Guadalajara,"COLONIAS 221, AMERICANA, Guadalajara",20.6727475,-103.3659644
274,VISTA HERMOSA,AV VISTA HERMO,3763,45189,Zapopan,"AV VISTA HERMO 3763, VISTA HERMOSA, Zapopan",20.7616693,-103.3347796
191,LA MARTINICA,PASEO DE LOS AL,79,45185,Zapopan,"PASEO DE LOS AL 79, LA MARTINICA, Zapopan",20.749005,-103.3596259
52,18 DE MARZO,FAJA DE ORO,1783,44960,Guadalajara,"FAJA DE ORO 1783, 18 DE MARZO, Guadalajara",20.63485145,-103.37672045
135,TALPITA,SANTO TOMAS,1786,44719,Guadalajara,"SANTO TOMAS 1786, TALPITA, Guadalajara",20.68355178,-103.31008927
264,EL ARENAL,PROLONGACION SA,43,45350,Zapopan,"PROLONGACION SA 43, EL ARENAL, Zapopan",20.74234227,-103.33373909
18,AMERICANA,MEXICALLTZINGO,1944,44160,Guadalajara,"MEXICALLTZINGO 1944, AMERICANA, Guadalajara",20.668444,-103.3673828
54,VILLAS DE GADALUPE,AV PATRIA,4177,44720,Guadalajara,"AV PATRIA 4177, VILLAS DE GADALUPE, Guadalajara",20.6849943,-103.2719253
51,LOMAS DEL PRADERO,AV PRESIDENTE,2235,44840,Guadalajara,"AV PRESIDENTE 2235, LOMAS DEL PRADERO, Guadalajara",20.648519,-103.3130901
238,LOMAS DEL CENTINELA,PASEO DEL OLMO,328,45187,Zapopan,"PASEO DEL OLMO 328, LOMAS DEL CENTINELA, Zapopan",20.75542914,-103.37931546
162,FRACC PALERMO,MARINA,204,45200,Zapopan,"MARINA 204, FRACC PALERMO, Zapopan",20.81616775,-103.460718
278,LOMAS DEL REFUGIO,AGUA PRIETA,111,45186,Zapopan,"AGUA PRIETA 111, LOMAS DEL REFUGIO, Zapopan",20.74929471,-103.34874768
142,18 DE MARZO,NATIVIDAD MACIA,1326,44960,Guadalajara,"NATIVIDAD MACIA 1326, 18 DE MARZO, Guadalajara",20.6332169,-103.3695316
174,UNIDAD JARDINES SEAT,JARDINES DE LOS,1233,45180,Zapopan,"JARDINES DE LOS 1233, UNIDAD JARDINES SEAT, Zapopan",20.7511529,-103.36893085
101,JARDINES DEL NILO,MANUEL RIVERA C,2818,44860,Guadalajara,"MANUEL RIVERA C 2818, JARDINES DEL NILO, Guadalajara",20.6459499,-103.3015471
90,OBLATOS,BATALLA DE IZUC,2508,44700,Guadalajara,"BATALLA DE IZUC 2508, OBLATOS, Guadalajara",20.698347,-103.288479
140,OBLATOS PONIENTE,HACIENDA LA GAV,3208,44700,Guadalajara,"HACIENDA LA GAV 3208, OBLATOS PONIENTE, Guadalajara",20.70194403,-103.28288184
263,INF LA TUZANIA,CAPULINES,40,45138,Zapopan,"CAPULINES 40, INF LA TUZANIA, Zapopan",20.731825,-103.418699
271,NUEVO MEXICO,COPALITA,2711,45138,Zapopan,"COPALITA 2711, NUEVO MEXICO, Zapopan",20.7647307,-103.43970355
148,LA FLORESTA DEL COLLI,BOULEVARD PUERT,26,45116,Zapopan,"BOULEVARD PUERT 26, LA FLORESTA DEL COLLI, Zapopan",20.70902792,-103.41388692
71,ELECTRICISTAS,RAMOS ARIZPE,451,44810,Guadalajara,"RAMOS ARIZPE 451, ELECTRICISTAS, Guadalajara",20.653829,-103.3106468
224,COPALITA,AV AMARANTO,175,45200,Zapopan,"AV AMARANTO 175, COPALITA, Zapopan",20.80905867,-103.45311198
114,TETLAN,AURELIA GUEVARA,3518,44820,Guadalajara,"AURELIA GUEVARA 3518, TETLAN, Guadalajara",20.6555499,-103.2887908
245,EL BRISE#O,CONSTELACION,7,45236,Zapopan,"CONSTELACION 7, EL BRISE#O, Zapopan",20.6229076,-103.4384665
237,VICENTE GUERRERO,C CEDROS,15,45134,Zapopan,"C CEDROS 15, VICENTE GUERRERO, Zapopan",20.741835,-103.3386413
200,EL HUMEDO,RIO ACAPONETA,2,45200,Zapopan,"RIO ACAPONETA 2, EL HUMEDO, Zapopan",20.795757,-103.493083
281,VILLA FONTANA DIAMANTE,AV LAS TORRES,1896,45200,Zapopan,"AV LAS TORRES 1896, VILLA FONTANA DIAMANTE, Zapopan",20.78039085,-103.4803915
218,EJIDAL LOMA BONITA,PEDRO MORENO,3205,45085,Zapopan,"PEDRO MORENO 3205, EJIDAL LOMA BONITA, Zapopan",20.6313377,-103.4015789
161,PRADOS  GUADALUPE,G ROSSINI,428,45030,Zapopan,"G ROSSINI 428, PRADOS  GUADALUPE, Zapopan",20.6686337,-103.4349976
79,JARDINES DE STA ISAB,STA MARTHA,3165,44300,Guadalajara,"STA MARTHA 3165, JARDINES DE STA ISAB, Guadalajara",20.714658,-103.313579
198,RANCHO NUEVO,CELERINO NAVARR,4135,44240,Zapopan,"CELERINO NAVARR 4135, RANCHO NUEVO, Zapopan",20.717712,-103.32276
128,JARDINES DE LA CRUZ,AV ISALA RAZA,2460,44950,Guadalajara,"AV ISALA RAZA 2460, JARDINES DE LA CRUZ, Guadalajara",20.634922,-103.391242
70,SAN MARCOS,CANTERA,819,44330,Guadalajara,"CANTERA 819, SAN MARCOS, Guadalajara",20.696713,-103.315329
36,JARDINES DE LA CRUZ,ISLA ASENCION,3108,44950,Guadalajara,"ISLA ASENCION 3108, JARDINES DE LA CRUZ, Guadalajara",20.637455,-103.380993
60,SANTA ROSA,MELQUIADES CAMP,2289,44700,Guadalajara,"MELQUIADES CAMP 2289, SANTA ROSA, Guadalajara",20.702616,-103.287933
127,HELIODORO HERNANDEZ,MIGUEL SANCHEZ,3789,44720,Guadalajara,"MIGUEL SANCHEZ 3789, HELIODORO HERNANDEZ, Guadalajara",20.6948729,-103.278313
261,COLLY SITIO,ROMANA,6570,45036,Zapopan,"ROMANA 6570, COLLY SITIO, Zapopan",20.65393358,-103.4396834
33,HUENTITAN EL BAJO,VOLCAN MAIPO,340,44250,Guadalajara,"VOLCAN MAIPO 340, HUENTITAN EL BAJO, Guadalajara",20.7417459,-103.3154301
65,1RO DE MAYO 1A SECCI,CARLOS A CARRIL,527,44970,Guadalajara,"CARLOS A CARRIL 527, 1RO DE MAYO 1A SECCI, Guadalajara",20.6230026,-103.3552397
80,JARDINES DEL NILO,HERNANDO ALVARA,3254,44860,Guadalajara,"HERNANDO ALVARA 3254, JARDINES DEL NILO, Guadalajara",20.6437163,-103.2937008
202,"FRACC, LOS MOLINOS",PLATA,70,45200,Zapopan,"PLATA 70, FRACC, LOS MOLINOS, Zapopan",20.84836438,-103.42263338
257,PARQUES DE ZAPOPAN,OPALO,14,45138,Zapopan,"OPALO 14, PARQUES DE ZAPOPAN, Zapopan",20.7473862,-103.4188519
212,PRADOS TEPEYAC,PRADO DE LAS GA,4468,45050,Zapopan,"PRADO DE LAS GA 4468, PRADOS TEPEYAC, Zapopan",20.654827,-103.413214
107,ZONA INDUSTRIAL SUR,CALLE 16,2526,44940,Guadalajara,"CALLE 16 2526, ZONA INDUSTRIAL SUR, Guadalajara",20.6412259,-103.35947148
182,SAN JUAN DE OCOTAN,MIGUEL MIRAMON,13,45019,Zapopan,"MIGUEL MIRAMON 13, SAN JUAN DE OCOTAN, Zapopan",20.764462,-103.452206
272,12 DE DICIEMBRE,TRUENO,260,45068,Zapopan,"TRUENO 260, 12 DE DICIEMBRE, Zapopan",20.6491888,-103.457067
66,BALCONES DE OBLATOS,ROSA RODRIGUEZ,3876,44720,Guadalajara,"ROSA RODRIGUEZ 3876, BALCONES DE OBLATOS, Guadalajara",20.6952319,-103.2769238
64,PARQUE INDUST EL ALA,FUNDICION,2131,44490,Guadalajara,"FUNDICION 2131, PARQUE INDUST EL ALA, Guadalajara",20.6266889,-103.3338499
249,FRACC REAL DEL BOSQUE,BERROCAL,449,45130,Zapopan,"BERROCAL 449, FRACC REAL DEL BOSQUE, Zapopan",20.7461139,-103.3969141
119,BOSQUES D L VICTORIA,FAUNA,2765,44540,Guadalajara,"FAUNA 2765, BOSQUES D L VICTORIA, Guadalajara",20.644029,-103.388121
270,RESIDENC LA ESTANCIA,WOLFANG AMADEUS,5552,45030,Zapopan,"WOLFANG AMADEUS 5552, RESIDENC LA ESTANCIA, Zapopan",20.6731122,-103.431709
92,HUENTITAN EL BAJO,VOLCAN VIRGEN,182,44250,Guadalajara,"VOLCAN VIRGEN 182, HUENTITAN EL BAJO, Guadalajara",20.7305924,-103.316844
209,FRACC JARDINES DE BELEN,TORONJA,41,45200,Zapopan,"TORONJA 41, FRACC JARDINES DE BELEN, Zapopan",20.8124,-103.4826
170,PASEOS DEL BRISE#O,PASEOS DE LOS I,1,45236,Zapopan,"PASEOS DE LOS I 1, PASEOS DEL BRISE#O, Zapopan",20.618144,-103.434739
42,EL CENTRO,JUAREZ,400,44100,Guadalajara,"JUAREZ 400, EL CENTRO, Guadalajara",20.6751683,-103.348691
267,MIGUEL HIDALGO,15 DE SEPTIEMBR,3017,45186,Zapopan,"15 DE SEPTIEMBR 3017, MIGUEL HIDALGO, Zapopan",20.748896,-103.340873
17,LA PERLA,PEDRO LANDAZURI,733,44360,Guadalajara,"PEDRO LANDAZURI 733, LA PERLA, Guadalajara",20.682905,-103.33238
125,BARRANQUITAS,PINO SUAREZ,879,44270,Guadalajara,"PINO SUAREZ 879, BARRANQUITAS, Guadalajara",20.6901934,-103.346581
240,FRACC CUSPIDE,CAMINO AL POTRE,1200,45200,Zapopan,"CAMINO AL POTRE 1200, FRACC CUSPIDE, Zapopan",20.802884,-103.4970855
151,VIGIA I,HERRADURA,242,45140,Zapopan,"HERRADURA 242, VIGIA I, Zapopan",20.7327233,-103.3938158
