,colony,street,street_number,postal_code,zone,directions,lat,lon
194,COLINAS DE ATEMAJAC,AV AURELIO ORTE,1176,45170,Zapopan,"AV AURELIO ORTE 1176, COLINAS DE ATEMAJAC, Zapopan",20.7213469,-103.3671295
193,CIUDAD GRANJA,CALZ DE LOS LA,164,45010,Zapopan,"CALZ DE LOS LA 164, CIUDAD GRANJA, Zapopan",20.6849754,-103.4518055
117,VALLARTA SAN JORGE,EUCLIDES,3302,44690,Guadalajara,"EUCLIDES 3302, VALLARTA SAN JORGE, Guadalajara",20.6751303,-103.3983219
5,BATALLON SN PATRICIO,CALZADA INDEPEN,503,44300,Guadalajara,"CALZADA INDEPEN 503, BATALLON SN PATRICIO, Guadalajara",20.7137381,-103.32089456
88,DIVISION DEL NORTE,SILVINA REMBOA,3050,44230,Guadalajara,"SILVINA REMBOA 3050, DIVISION DEL NORTE, Guadalajara",20.7241509,-103.3374218
225,MESA COLORADA PTE,NABO,543,45189,Zapopan,"NABO 543, MESA COLORADA PTE, Zapopan",20.763,-103.34626
226,ARENALES TAPATIOS,CROMITA,69,45066,Zapopan,"CROMITA 69, ARENALES TAPATIOS, Zapopan",20.633538,-103.4592391
111,OBLATOS PONIENTE,HACIENDA LA PUR,2415,44700,Guadalajara,"HACIENDA LA PUR 2415, OBLATOS PONIENTE, Guadalajara",20.701229,-103.2951931
201,HOGARES D NVO MEXICO,AV AVIACION,36,45138,Zapopan,"AV AVIACION 36, HOGARES D NVO MEXICO, Zapopan",20.73702555,-103.44966935
215,VALLE DE LOS MOLINOS,BERNA,75,45200,Zapopan,"BERNA 75, VALLE DE LOS MOLINOS, Zapopan",20.8547918,-103.42304733
137,LOMAS DE RIO VERDE,DEMOSTENES,3550,44720,Guadalajara,"DEMOSTENES 3550, LOMAS DE RIO VERDE, Guadalajara",20.68517129,-103.28554658
275,JARDINES D NVO MEXIC,SEGUNDA NORTE,5699,45138,Zapopan,"SEGUNDA NORTE 5699, JARDINES D NVO MEXIC, Zapopan",20.7695635,-103.4477057
241,PRADOS TEPEYAC,PRADO DE LAS RO,308,45050,Zapopan,"PRADO DE LAS RO 308, PRADOS TEPEYAC, Zapopan",20.65714869,-103.41220962
197,SAN ISIDRO EJIDAL,NUEVO MEXICO,250,45147,Zapopan,"NUEVO MEXICO 250, SAN ISIDRO EJIDAL, Zapopan",20.726598,-103.398205
243,REAL DE VALDEPE?S,RINCONADA DEL C,1327,45130,Zapopan,"RINCONADA DEL C 1327, REAL DE VALDEPE?S, Zapopan",20.75622519,-103.40385961
96,RNDA DE PAZ,ALBANILES,543,44860,Guadalajara,"ALBANILES 543, RNDA DE PAZ, Guadalajara",20.64808,-103.307708
151,VIGIA I,HERRADURA,242,45140,Zapopan,"HERRADURA 242, VIGIA I, Zapopan",20.7327233,-103.3938158
278,LOMAS DEL REFUGIO,AGUA PRIETA,111,45186,Zapopan,"AGUA PRIETA 111, LOMAS DEL REFUGIO, Zapopan",20.74929471,-103.34874768
116,LOMAS DE POLANCO,JOSE CARRILLO,3528,44960,Guadalajara,"JOSE CARRILLO 3528, LOMAS DE POLANCO, Guadalajara",20.6307235,-103.3795677
108,VILLA VICENTE GUERRE,ISLA USTICA,3318,44860,Guadalajara,"ISLA USTICA 3318, VILLA VICENTE GUERRE, Guadalajara",20.632482,-103.395812
140,OBLATOS PONIENTE,HACIENDA LA GAV,3208,44700,Guadalajara,"HACIENDA LA GAV 3208, OBLATOS PONIENTE, Guadalajara",20.70194403,-103.28288184
23,BALCONES DE OBLATOS,HACIENDA DEL CA,2275,44720,Guadalajara,"HACIENDA DEL CA 2275, BALCONES DE OBLATOS, Guadalajara",20.68696384,-103.28869462
150,FRACC CUSPIDE,VALLE DE TESIST,198,45200,Zapopan,"VALLE DE TESIST 198, FRACC CUSPIDE, Zapopan",20.795812,-103.4822218
213,AGRICOLA,DALIA,138,45236,Zapopan,"DALIA 138, AGRICOLA, Zapopan",20.6165614,-103.4310802
196,AGRICOLA,OBELISCO,138,45236,Zapopan,"OBELISCO 138, AGRICOLA, Zapopan",20.616065,-103.432436
146,LA ESPERANZA,IGUALDAD,186,44300,Guadalajara,"IGUALDAD 186, LA ESPERANZA, Guadalajara",20.7098839,-103.319677
91,HUENTITAN EL BAJO,VOLCAN FUJIYAMA,4413,44250,Guadalajara,"VOLCAN FUJIYAMA 4413, HUENTITAN EL BAJO, Guadalajara",20.738969,-103.3189689
229,VILLA FONTANA DIAMANTE,FUENTE GRAFITO,8884,45200,Zapopan,"FUENTE GRAFITO 8884, VILLA FONTANA DIAMANTE, Zapopan",20.7795959,-103.4746901
121,5 DE MAYO,RAMON MARQUEZ,362,44970,Guadalajara,"RAMON MARQUEZ 362, 5 DE MAYO, Guadalajara",20.6248619,-103.3530199
214,EL COLLY URBANO I,VOLCAN VESUBIO,2321,45070,Zapopan,"VOLCAN VESUBIO 2321, EL COLLY URBANO I, Zapopan",20.6413426,-103.4276583
171,VILLA UNIVESITARIA,AV PATRIA,1446,45110,Zapopan,"AV PATRIA 1446, VILLA UNIVESITARIA, Zapopan",20.6974505,-103.4156311
143,VALENTIN GOMEZ FARIA,JUAN DE DIOS CO,12,44977,Guadalajara,"JUAN DE DIOS CO 12, VALENTIN GOMEZ FARIA, Guadalajara",20.6166636,-103.36543282
160,ALTAMIRA,AV AMERICA,580,45160,Zapopan,"AV AMERICA 580, ALTAMIRA, Zapopan",20.7170404,-103.3886043
176,VIRREYES RESIDENCIAL,AV NACIONES UNI,6904,45110,Zapopan,"AV NACIONES UNI 6904, VIRREYES RESIDENCIAL, Zapopan",20.695938,-103.442158
60,SANTA ROSA,MELQUIADES CAMP,2289,44700,Guadalajara,"MELQUIADES CAMP 2289, SANTA ROSA, Guadalajara",20.702616,-103.287933
162,FRACC PALERMO,MARINA,204,45200,Zapopan,"MARINA 204, FRACC PALERMO, Zapopan",20.81616775,-103.460718
66,BALCONES DE OBLATOS,ROSA RODRIGUEZ,3876,44720,Guadalajara,"ROSA RODRIGUEZ 3876, BALCONES DE OBLATOS, Guadalajara",20.6952319,-103.2769238
20,BLANCO Y CUELLAR,EMILIO RABAZA,2132,44730,Guadalajara,"EMILIO RABAZA 2132, BLANCO Y CUELLAR, Guadalajara",20.67964,-103.3047158
11,BARRIO ANALCO,ABASOLO,147,44450,Guadalajara,"ABASOLO 147, BARRIO ANALCO, Guadalajara",20.6696438,-103.3353768
168,PARAISOS DEL COLLY,GALEANA,1068,45069,Zapopan,"GALEANA 1068, PARAISOS DEL COLLY, Zapopan",20.6508438,-103.4542078
44,MARAVILLA,MESA DEL NORTE,1272,44700,Guadalajara,"MESA DEL NORTE 1272, MARAVILLA, Guadalajara",20.6996615,-103.3042162
266,EL ZAPOTE,TEZOZOMOC,4357,45050,Zapopan,"TEZOZOMOC 4357, EL ZAPOTE, Zapopan",20.6546574,-103.4153864
100,SAN ANDRES,CALLE B,165,44810,Guadalajara,"CALLE B 165, SAN ANDRES, Guadalajara",20.68627928,-103.26576928
204,REAL DE VALDEPE?S,ALAMBIQUE,51,45130,Zapopan,"ALAMBIQUE 51, REAL DE VALDEPE?S, Zapopan",20.7560515,-103.4015362
142,18 DE MARZO,NATIVIDAD MACIA,1326,44960,Guadalajara,"NATIVIDAD MACIA 1326, 18 DE MARZO, Guadalajara",20.6332169,-103.3695316
17,LA PERLA,PEDRO LANDAZURI,733,44360,Guadalajara,"PEDRO LANDAZURI 733, LA PERLA, Guadalajara",20.682905,-103.33238
221,HDA SAN ISIDRO,LA VILLA,455,45147,Zapopan,"LA VILLA 455, HDA SAN ISIDRO, Zapopan",20.7289036,-103.3982935
228,VILLA FONTANA DIAMANTE,AV JADE,86,45200,Zapopan,"AV JADE 86, VILLA FONTANA DIAMANTE, Zapopan",20.80761483,-103.48160873
69,JARDINES DE LA PAZ,TEJEDORES,569,44860,Guadalajara,"TEJEDORES 569, JARDINES DE LA PAZ, Guadalajara",20.647502,-103.3072318
115,SAN CARLOS,LOS ANGELES,171,44460,Guadalajara,"LOS ANGELES 171, SAN CARLOS, Guadalajara",20.662959,-103.344124
222,LA ESTRADA,HIDALAGO,6,45200,Zapopan,"HIDALAGO 6, LA ESTRADA, Zapopan",20.79264101,-103.47565388
8,RINCONADA DE HUENTITAN,JUAN CARRASCO,5234,44250,Guadalajara,"JUAN CARRASCO 5234, RINCONADA DE HUENTITAN, Guadalajara",20.7334639,-103.3219648
3,JARDINES DE LOS POET,JOSE FERNANDEZ,3365,44820,Guadalajara,"JOSE FERNANDEZ 3365, JARDINES DE LOS POET, Guadalajara",20.6484961,-103.29001645
40,ARANDAS,HACIENDA LA ERR,1877,44720,Guadalajara,"HACIENDA LA ERR 1877, ARANDAS, Guadalajara",20.68584251,-103.2726593
203,RESID LAS ARBOLEDAS,AURORA BOREAL N,4170,45070,Zapopan,"AURORA BOREAL N 4170, RESID LAS ARBOLEDAS, Zapopan",20.6282461,-103.4284541
105,JARDINES DE STA ISAB,COMBATE DE SACR,228,44300,Guadalajara,"COMBATE DE SACR 228, JARDINES DE STA ISAB, Guadalajara",20.716095,-103.314819
102,ECHEVERRIA,JOSE ROJO,958,44970,Guadalajara,"JOSE ROJO 958, ECHEVERRIA, Guadalajara",20.62216715,-103.36095184
29,SANTA MARIA,SAN MATEO,1407,44350,Guadalajara,"SAN MATEO 1407, SANTA MARIA, Guadalajara",20.6879689,-103.3157451
106,PARQUE REVOLUCION,AV MIGUEL HIDAL,469,44100,Guadalajara,"AV MIGUEL HIDAL 469, PARQUE REVOLUCION, Guadalajara",20.679603,-103.350983
282,REAL DE TESISTAN,PASEO DE LA ARB,176,45200,Zapopan,"PASEO DE LA ARB 176, REAL DE TESISTAN, Zapopan",20.6140105,-103.4564312
134,CANTARRANAS,MIGUEL BERNAL,3327,44829,Guadalajara,"MIGUEL BERNAL 3327, CANTARRANAS, Guadalajara",20.65865637,-103.2906591
39,PROGRESO,FRANCISCO SARAB,235,44730,Guadalajara,"FRANCISCO SARAB 235, PROGRESO, Guadalajara",20.6687989,-103.3080091
15,OBLATOS PONIENTE,HACIENDA DE LAS,2299,44700,Guadalajara,"HACIENDA DE LAS 2299, OBLATOS PONIENTE, Guadalajara",20.6942949,-103.2973538
64,PARQUE INDUST EL ALA,FUNDICION,2131,44490,Guadalajara,"FUNDICION 2131, PARQUE INDUST EL ALA, Guadalajara",20.6266889,-103.3338499
210,FRACC MIRADOR D SN I,AV INDUSTRIA TE,2030,45133,Zapopan,"AV INDUSTRIA TE 2030, FRACC MIRADOR D SN I, Zapopan",20.7582237,-103.3867842
24,HOGARES GUADALAJARA,CIRCUNVALACION,258,44340,Guadalajara,"CIRCUNVALACION 258, HOGARES GUADALAJARA, Guadalajara",20.690509,-103.328187
244,SANTA ANA TEPETITLAN,HIDALGO,35,45230,Zapopan,"HIDALGO 35, SANTA ANA TEPETITLAN, Zapopan",20.6208991,-103.456008
273,REAL QUINTAS DEL VALLE,CIRCUITO REAL S,0,45138,Zapopan,"CIRCUITO REAL S 0, REAL QUINTAS DEL VALLE, Zapopan",20.73714441,-103.44750205
70,SAN MARCOS,CANTERA,819,44330,Guadalajara,"CANTERA 819, SAN MARCOS, Guadalajara",20.696713,-103.315329
141,SAN JUAN BOSCO,FELIX BERNARDEL,428,44730,Guadalajara,"FELIX BERNARDEL 428, SAN JUAN BOSCO, Guadalajara",20.6690339,-103.3025698
94,MARAVILLA,SANTA JULIA,1334,44700,Guadalajara,"SANTA JULIA 1334, MARAVILLA, Guadalajara",20.6971499,-103.3048029
18,AMERICANA,MEXICALLTZINGO,1944,44160,Guadalajara,"MEXICALLTZINGO 1944, AMERICANA, Guadalajara",20.668444,-103.3673828
161,PRADOS  GUADALUPE,G ROSSINI,428,45030,Zapopan,"G ROSSINI 428, PRADOS  GUADALUPE, Zapopan",20.6686337,-103.4349976
112,MORELOS,CISNE,1332,44910,Guadalajara,"CISNE 1332, MORELOS, Guadalajara",20.6543829,-103.359092
189,EJIDAL LOMA BONITA,PEDRO MORENO,3308,45085,Zapopan,"PEDRO MORENO 3308, EJIDAL LOMA BONITA, Zapopan",20.6317603,-103.4051996
125,BARRANQUITAS,PINO SUAREZ,879,44270,Guadalajara,"PINO SUAREZ 879, BARRANQUITAS, Guadalajara",20.6901934,-103.346581
6,TETLAN,GIGANTES,108,44820,Guadalajara,"GIGANTES 108, TETLAN, Guadalajara",20.65951835,-103.2736384
165,CANTEROS,PRIVADA CANTERO,1564,45190,Zapopan,"PRIVADA CANTERO 1564, CANTEROS, Zapopan",20.727049,-103.338664
181,CONDOMINIO MALAGA,AV CENTRAL,1351,45117,Zapopan,"AV CENTRAL 1351, CONDOMINIO MALAGA, Zapopan",20.6937778,-103.4324128
209,FRACC JARDINES DE BELEN,TORONJA,41,45200,Zapopan,"TORONJA 41, FRACC JARDINES DE BELEN, Zapopan",20.8124,-103.4826
47,GUADALUPANA,CELEDONIO PADIL,2162,44220,Guadalajara,"CELEDONIO PADIL 2162, GUADALUPANA, Guadalajara",20.7099819,-103.355384
26,OBLATOS,AV JUAN PABLO L,3165,44700,Guadalajara,"AV JUAN PABLO L 3165, OBLATOS, Guadalajara",20.6982095,-103.295162
16,LOMAS DEL PARADERO,LUIS QUINTANAR,746,44840,Guadalajara,"LUIS QUINTANAR 746, LOMAS DEL PARADERO, Guadalajara",20.650031,-103.3199848
182,SAN JUAN DE OCOTAN,MIGUEL MIRAMON,13,45019,Zapopan,"MIGUEL MIRAMON 13, SAN JUAN DE OCOTAN, Zapopan",20.764462,-103.452206
128,JARDINES DE LA CRUZ,AV ISALA RAZA,2460,44950,Guadalajara,"AV ISALA RAZA 2460, JARDINES DE LA CRUZ, Guadalajara",20.634922,-103.391242
51,LOMAS DEL PRADERO,AV PRESIDENTE,2235,44840,Guadalajara,"AV PRESIDENTE 2235, LOMAS DEL PRADERO, Guadalajara",20.648519,-103.3130901
80,JARDINES DEL NILO,HERNANDO ALVARA,3254,44860,Guadalajara,"HERNANDO ALVARA 3254, JARDINES DEL NILO, Guadalajara",20.6437163,-103.2937008
227,MESA COLORADA PTE,ANAHUAC,52,45189,Zapopan,"ANAHUAC 52, MESA COLORADA PTE, Zapopan",20.7593548,-103.3370537
170,PASEOS DEL BRISE#O,PASEOS DE LOS I,1,45236,Zapopan,"PASEOS DE LOS I 1, PASEOS DEL BRISE#O, Zapopan",20.618144,-103.434739
253,NUEVO MEXICO,6 DE ENERO,3239,45138,Zapopan,"6 DE ENERO 3239, NUEVO MEXICO, Zapopan",20.75714709,-103.43247582
35,LAGOS D OTE ZONA TET,LICURGO,336,44770,Guadalajara,"LICURGO 336, LAGOS D OTE ZONA TET, Guadalajara",20.665926,-103.288257
77,DIVISION DEL NORTE,TERUEL,3693,44230,Guadalajara,"TERUEL 3693, DIVISION DEL NORTE, Guadalajara",20.721705,-103.3379679
10,MARAVILLA,HACIENDA DE GUA,1124,44700,Guadalajara,"HACIENDA DE GUA 1124, MARAVILLA, Guadalajara",20.7016579,-103.306797
283,EL CENTINELA 2,HIDALGO,310,45187,Zapopan,"HIDALGO 310, EL CENTINELA 2, Zapopan",20.758003,-103.380373
164,VISTA HERMOSA,VISTA BONITA,739,45189,Zapopan,"VISTA BONITA 739, VISTA HERMOSA, Zapopan",20.762084,-103.334313
49,EL MIRADOR,EMILIANO ZAPATA,780,44370,Guadalajara,"EMILIANO ZAPATA 780, EL MIRADOR, Guadalajara",20.684788,-103.3233951
153,MIRAMAR,BAHIA MAGDALENA,5,45060,Zapopan,"BAHIA MAGDALENA 5, MIRAMAR, Zapopan",20.6407449,-103.4490608
236,FRACC REAL DEL BOSQUE,CALLE CAMPO REA,371,45130,Zapopan,"CALLE CAMPO REA 371, FRACC REAL DEL BOSQUE, Zapopan",20.746274,-103.395428
87,COUNTRY CLUB,AV JORGE ALVARE,1535,44610,Guadalajara,"AV JORGE ALVARE 1535, COUNTRY CLUB, Guadalajara",20.7037391,-103.3652489
130,LADRON DE GUEVARA,AVENIDA AMERICA,620,44600,Guadalajara,"AVENIDA AMERICA 620, LADRON DE GUEVARA, Guadalajara",20.6874428,-103.3731335
