,colony,street,street_number,postal_code,zone,directions,lat,lon
237,VICENTE GUERRERO,C CEDROS,15,45134,Zapopan,"C CEDROS 15, VICENTE GUERRERO, Zapopan",20.741835,-103.3386413
17,LA PERLA,PEDRO LANDAZURI,733,44360,Guadalajara,"PEDRO LANDAZURI 733, LA PERLA, Guadalajara",20.682905,-103.33238
207,VICTOR HUGO,PRIVADA COLON,150,45190,Zapopan,"PRIVADA COLON 150, VICTOR HUGO, Zapopan",20.7211,-103.3541
268,TABACHINES,PASEO DE LOS AV,3101,45188,Zapopan,"PASEO DE LOS AV 3101, TABACHINES, Zapopan",20.74189052,-103.36275942
95,ZALATE II,OTILIO GONZALEZ,1116,44760,Guadalajara,"OTILIO GONZALEZ 1116, ZALATE II, Guadalajara",20.679092,-103.2750349
56,UNIDAD BELISARIO DOM,JOSE LUIS MORA,1212,44329,Guadalajara,"JOSE LUIS MORA 1212, UNIDAD BELISARIO DOM, Guadalajara",20.6848539,-103.321828
40,ARANDAS,HACIENDA LA ERR,1877,44720,Guadalajara,"HACIENDA LA ERR 1877, ARANDAS, Guadalajara",20.68584251,-103.2726593
250,TIERRA RESIDENCIAL,SAN MATEO,2010,45200,Zapopan,"SAN MATEO 2010, TIERRA RESIDENCIAL, Zapopan",20.8026474,-103.4705006
280,MESA COLORADA PTE,DELLI,1825,45189,Zapopan,"DELLI 1825, MESA COLORADA PTE, Zapopan",20.7704348,-103.3478953
105,JARDINES DE STA ISAB,COMBATE DE SACR,228,44300,Guadalajara,"COMBATE DE SACR 228, JARDINES DE STA ISAB, Guadalajara",20.716095,-103.314819
91,HUENTITAN EL BAJO,VOLCAN FUJIYAMA,4413,44250,Guadalajara,"VOLCAN FUJIYAMA 4413, HUENTITAN EL BAJO, Guadalajara",20.738969,-103.3189689
70,SAN MARCOS,CANTERA,819,44330,Guadalajara,"CANTERA 819, SAN MARCOS, Guadalajara",20.696713,-103.315329
223,MESA DE LOS OCOTES,BETABEL,23,45189,Zapopan,"BETABEL 23, MESA DE LOS OCOTES, Zapopan",20.7672275,-103.3435708
45,POLANQUITO,MIGUEL MACIAS,3653,44969,Guadalajara,"MIGUEL MACIAS 3653, POLANQUITO, Guadalajara",20.618594,-103.37202
33,HUENTITAN EL BAJO,VOLCAN MAIPO,340,44250,Guadalajara,"VOLCAN MAIPO 340, HUENTITAN EL BAJO, Guadalajara",20.7417459,-103.3154301
162,FRACC PALERMO,MARINA,204,45200,Zapopan,"MARINA 204, FRACC PALERMO, Zapopan",20.81616775,-103.460718
32,PANORAMICA HUENTITAN,CALZADA,4500,44259,Guadalajara,"CALZADA 4500, PANORAMICA HUENTITAN, Guadalajara",20.736203,-103.312081
201,HOGARES D NVO MEXICO,AV AVIACION,36,45138,Zapopan,"AV AVIACION 36, HOGARES D NVO MEXICO, Zapopan",20.73702555,-103.44966935
71,ELECTRICISTAS,RAMOS ARIZPE,451,44810,Guadalajara,"RAMOS ARIZPE 451, ELECTRICISTAS, Guadalajara",20.653829,-103.3106468
110,OBLATOS PONIENTE,HDA LAS CRUCES,2158,44700,Guadalajara,"HDA LAS CRUCES 2158, OBLATOS PONIENTE, Guadalajara",20.69361,-103.2988478
73,LA LOMA,LUIS PAEZ BROTC,1574,44410,Guadalajara,"LUIS PAEZ BROTC 1574, LA LOMA, Guadalajara",20.6603006,-103.3213277
202,"FRACC, LOS MOLINOS",PLATA,70,45200,Zapopan,"PLATA 70, FRACC, LOS MOLINOS, Zapopan",20.84836438,-103.42263338
41,VALENTIN GOMEZ FARIA,CANUTO ELIAS,3414,44977,Guadalajara,"CANUTO ELIAS 3414, VALENTIN GOMEZ FARIA, Guadalajara",20.6190587,-103.3629314
55,BEATRIZ HERNANDEZ,GAZA,1333,44760,Guadalajara,"GAZA 1333, BEATRIZ HERNANDEZ, Guadalajara",20.681007,-103.2865761
274,VISTA HERMOSA,AV VISTA HERMO,3763,45189,Zapopan,"AV VISTA HERMO 3763, VISTA HERMOSA, Zapopan",20.7616693,-103.3347796
173,BUGAMBILIAS,PASEO DE LA VIC,4952,45238,Zapopan,"PASEO DE LA VIC 4952, BUGAMBILIAS, Zapopan",20.60869227,-103.47949598
246,HDA SAN ISIDRO,EJIDO,570,45147,Zapopan,"EJIDO 570, HDA SAN ISIDRO, Zapopan",20.7334016,-103.3978425
199,JARDINES D NVO MEXIC,SEXTA PTE,535,45138,Zapopan,"SEXTA PTE 535, JARDINES D NVO MEXIC, Zapopan",20.76243185,-103.43949475
141,SAN JUAN BOSCO,FELIX BERNARDEL,428,44730,Guadalajara,"FELIX BERNARDEL 428, SAN JUAN BOSCO, Guadalajara",20.6690339,-103.3025698
194,COLINAS DE ATEMAJAC,AV AURELIO ORTE,1176,45170,Zapopan,"AV AURELIO ORTE 1176, COLINAS DE ATEMAJAC, Zapopan",20.7213469,-103.3671295
8,RINCONADA DE HUENTITAN,JUAN CARRASCO,5234,44250,Guadalajara,"JUAN CARRASCO 5234, RINCONADA DE HUENTITAN, Guadalajara",20.7334639,-103.3219648
89,BOSQUES D L VICTORIA,PENINSULA,2713,44540,Guadalajara,"PENINSULA 2713, BOSQUES D L VICTORIA, Guadalajara",20.6458589,-103.3923679
136,MIRAVALLE,MAURICIO CAMPOS,512,44990,Guadalajara,"MAURICIO CAMPOS 512, MIRAVALLE, Guadalajara",20.6094738,-103.3478201
20,BLANCO Y CUELLAR,EMILIO RABAZA,2132,44730,Guadalajara,"EMILIO RABAZA 2132, BLANCO Y CUELLAR, Guadalajara",20.67964,-103.3047158
188,FRACC CUSPIDE,SAN MATEO 1155,27,45200,Zapopan,"SAN MATEO 1155 27, FRACC CUSPIDE, Zapopan",20.7963827,-103.4688727
114,TETLAN,AURELIA GUEVARA,3518,44820,Guadalajara,"AURELIA GUEVARA 3518, TETLAN, Guadalajara",20.6555499,-103.2887908
74,BENITO JUAREZ,JUAN MANUEL RUV,1992,45199,Guadalajara,"JUAN MANUEL RUV 1992, BENITO JUAREZ, Guadalajara",20.6786141,-103.361751
225,MESA COLORADA PTE,NABO,543,45189,Zapopan,"NABO 543, MESA COLORADA PTE, Zapopan",20.763,-103.34626
54,VILLAS DE GADALUPE,AV PATRIA,4177,44720,Guadalajara,"AV PATRIA 4177, VILLAS DE GADALUPE, Guadalajara",20.6849943,-103.2719253
131,FEDERALISMO,MONTE HIMALAYA,1416,44350,Guadalajara,"MONTE HIMALAYA 1416, FEDERALISMO, Guadalajara",20.691592,-103.317129
82,MEZQUITAN COUNTRY,DIAGONAL NAJERA,1876,44260,Guadalajara,"DIAGONAL NAJERA 1876, MEZQUITAN COUNTRY, Guadalajara",20.69196018,-103.3647616
171,VILLA UNIVESITARIA,AV PATRIA,1446,45110,Zapopan,"AV PATRIA 1446, VILLA UNIVESITARIA, Zapopan",20.6974505,-103.4156311
261,COLLY SITIO,ROMANA,6570,45036,Zapopan,"ROMANA 6570, COLLY SITIO, Zapopan",20.65393358,-103.4396834
196,AGRICOLA,OBELISCO,138,45236,Zapopan,"OBELISCO 138, AGRICOLA, Zapopan",20.616065,-103.432436
63,MIRAVALLE,JOSE JARAMILLO,526,44990,Guadalajara,"JOSE JARAMILLO 526, MIRAVALLE, Guadalajara",20.6156665,-103.3528171
209,FRACC JARDINES DE BELEN,TORONJA,41,45200,Zapopan,"TORONJA 41, FRACC JARDINES DE BELEN, Zapopan",20.8124,-103.4826
143,VALENTIN GOMEZ FARIA,JUAN DE DIOS CO,12,44977,Guadalajara,"JUAN DE DIOS CO 12, VALENTIN GOMEZ FARIA, Guadalajara",20.6166636,-103.36543282
64,PARQUE INDUST EL ALA,FUNDICION,2131,44490,Guadalajara,"FUNDICION 2131, PARQUE INDUST EL ALA, Guadalajara",20.6266889,-103.3338499
279,LOMAS DL VALLE VI UN,CANCER,3992,45129,Zapopan,"CANCER 3992, LOMAS DL VALLE VI UN, Zapopan",20.6850586,-103.4084621
226,ARENALES TAPATIOS,CROMITA,69,45066,Zapopan,"CROMITA 69, ARENALES TAPATIOS, Zapopan",20.633538,-103.4592391
109,VALLARTA SAN JORGE,TUCIDIDES,156,44690,Guadalajara,"TUCIDIDES 156, VALLARTA SAN JORGE, Guadalajara",20.678198,-103.3960161
249,FRACC REAL DEL BOSQUE,BERROCAL,449,45130,Zapopan,"BERROCAL 449, FRACC REAL DEL BOSQUE, Zapopan",20.7461139,-103.3969141
220,INF LA TUZANIA,AND OYAMELES,1124,45138,Zapopan,"AND OYAMELES 1124, INF LA TUZANIA, Zapopan",20.7370922,-103.4154143
7,MODERNA,AV ESPANA,1092,44190,Guadalajara,"AV ESPANA 1092, MODERNA, Guadalajara",20.659424,-103.3531261
53,LA AURORA,JARDINES DE BAB,20,44790,Guadalajara,"JARDINES DE BAB 20, LA AURORA, Guadalajara",20.66066767,-103.28141363
121,5 DE MAYO,RAMON MARQUEZ,362,44970,Guadalajara,"RAMON MARQUEZ 362, 5 DE MAYO, Guadalajara",20.6248619,-103.3530199
218,EJIDAL LOMA BONITA,PEDRO MORENO,3205,45085,Zapopan,"PEDRO MORENO 3205, EJIDAL LOMA BONITA, Zapopan",20.6313377,-103.4015789
46,MIRAVALLE II,PEDRO PATINO,643,44990,Guadalajara,"PEDRO PATINO 643, MIRAVALLE II, Guadalajara",20.6069021,-103.3496879
266,EL ZAPOTE,TEZOZOMOC,4357,45050,Zapopan,"TEZOZOMOC 4357, EL ZAPOTE, Zapopan",20.6546574,-103.4153864
192,REAL DE VALDEPE?S,CALLE G 1470 TO,1470,45130,Zapopan,"CALLE G 1470 TO 1470, REAL DE VALDEPE?S, Zapopan",20.75259018,-103.4048233
88,DIVISION DEL NORTE,SILVINA REMBOA,3050,44230,Guadalajara,"SILVINA REMBOA 3050, DIVISION DEL NORTE, Guadalajara",20.7241509,-103.3374218
100,SAN ANDRES,CALLE B,165,44810,Guadalajara,"CALLE B 165, SAN ANDRES, Guadalajara",20.68627928,-103.26576928
117,VALLARTA SAN JORGE,EUCLIDES,3302,44690,Guadalajara,"EUCLIDES 3302, VALLARTA SAN JORGE, Guadalajara",20.6751303,-103.3983219
62,SAN VICENTE,MONTES MARCIANO,2173,44330,Guadalajara,"MONTES MARCIANO 2173, SAN VICENTE, Guadalajara",20.70378,-103.3159849
113,JARDINES DEL COUNTRY,ENRIQUE DIAZ DE,2336,44210,Guadalajara,"ENRIQUE DIAZ DE 2336, JARDINES DEL COUNTRY, Guadalajara",20.712932,-103.360833
213,AGRICOLA,DALIA,138,45236,Zapopan,"DALIA 138, AGRICOLA, Zapopan",20.6165614,-103.4310802
102,ECHEVERRIA,JOSE ROJO,958,44970,Guadalajara,"JOSE ROJO 958, ECHEVERRIA, Guadalajara",20.62216715,-103.36095184
96,RNDA DE PAZ,ALBANILES,543,44860,Guadalajara,"ALBANILES 543, RNDA DE PAZ, Guadalajara",20.64808,-103.307708
284,LA VENTA DEL ASTILLE,JILGEROS,33,45221,Zapopan,"JILGEROS 33, LA VENTA DEL ASTILLE, Zapopan",20.7322419,-103.53937
126,ARANDAS,HACIENDA DEL CO,3363,44720,Guadalajara,"HACIENDA DEL CO 3363, ARANDAS, Guadalajara",20.69041905,-103.28173759
50,JARDINES DE LA CRUZ,ISLA MADAGASCAR,3111,44950,Guadalajara,"ISLA MADAGASCAR 3111, JARDINES DE LA CRUZ, Guadalajara",20.63864,-103.386237
240,FRACC CUSPIDE,CAMINO AL POTRE,1200,45200,Zapopan,"CAMINO AL POTRE 1200, FRACC CUSPIDE, Zapopan",20.802884,-103.4970855
12,BEATRIZ HERNANDEZ,MARGARITA GUTIE,3497,44760,Guadalajara,"MARGARITA GUTIE 3497, BEATRIZ HERNANDEZ, Guadalajara",20.6814079,-103.284874
145,SAN ANDRES,AVELINO M PRESA,3335,44810,Guadalajara,"AVELINO M PRESA 3335, SAN ANDRES, Guadalajara",20.661081,-103.2907359
68,CIRCUNVAL VALLARTA,REFORMA,2749,44680,Guadalajara,"REFORMA 2749, CIRCUNVAL VALLARTA, Guadalajara",20.6804909,-103.3859638
228,VILLA FONTANA DIAMANTE,AV JADE,86,45200,Zapopan,"AV JADE 86, VILLA FONTANA DIAMANTE, Zapopan",20.80761483,-103.48160873
129,DEL FRESNO,CIPRES,1738,44900,Guadalajara,"CIPRES 1738, DEL FRESNO, Guadalajara",20.6579289,-103.3661019
59,INDEPENDENCIA PTE,ROGELIO BACON,1676,44290,Guadalajara,"ROGELIO BACON 1676, INDEPENDENCIA PTE, Guadalajara",20.7036,-103.3334499
79,JARDINES DE STA ISAB,STA MARTHA,3165,44300,Guadalajara,"STA MARTHA 3165, JARDINES DE STA ISAB, Guadalajara",20.714658,-103.313579
84,TETLAN,JOSE RAMOS,4342,44820,Guadalajara,"JOSE RAMOS 4342, TETLAN, Guadalajara",20.6609958,-103.2714154
176,VIRREYES RESIDENCIAL,AV NACIONES UNI,6904,45110,Zapopan,"AV NACIONES UNI 6904, VIRREYES RESIDENCIAL, Zapopan",20.695938,-103.442158
211,EL COLLY URBANO I,MELCHOR OCAMPO,1233,45070,Zapopan,"MELCHOR OCAMPO 1233, EL COLLY URBANO I, Zapopan",20.6449026,-103.4405377
276,EL BATAN,ANDADOR AGUA AZ,44,45190,Zapopan,"ANDADOR AGUA AZ 44, EL BATAN, Zapopan",20.72135701,-103.3443436
180,VALLE REAL,PASEO SAN ARTUR,685,45019,Zapopan,"PASEO SAN ARTUR 685, VALLE REAL, Zapopan",20.722536,-103.44067
10,MARAVILLA,HACIENDA DE GUA,1124,44700,Guadalajara,"HACIENDA DE GUA 1124, MARAVILLA, Guadalajara",20.7016579,-103.306797
234,PASEOS DEL SOL,TOMAS BALCAZAR,5404,45079,Zapopan,"TOMAS BALCAZAR 5404, PASEOS DEL SOL, Zapopan",20.637128,-103.427021
277,DIVISION DL NTE ZAP,FRANCISCO VILLA,27,45180,Zapopan,"FRANCISCO VILLA 27, DIVISION DL NTE ZAP, Zapopan",20.73240707,-103.35364459
35,LAGOS D OTE ZONA TET,LICURGO,336,44770,Guadalajara,"LICURGO 336, LAGOS D OTE ZONA TET, Guadalajara",20.665926,-103.288257
179,INDIGENA D MEZQUITAN,18 DE MARZO,409,45190,Zapopan,"18 DE MARZO 409, INDIGENA D MEZQUITAN, Zapopan",20.738673,-103.331924
175,RINCONADA DL AUDITOR,ALBERTO CINTA,39,45180,Zapopan,"ALBERTO CINTA 39, RINCONADA DL AUDITOR, Zapopan",20.7367901,-103.3424097
80,JARDINES DEL NILO,HERNANDO ALVARA,3254,44860,Guadalajara,"HERNANDO ALVARA 3254, JARDINES DEL NILO, Guadalajara",20.6437163,-103.2937008
36,JARDINES DE LA CRUZ,ISLA ASENCION,3108,44950,Guadalajara,"ISLA ASENCION 3108, JARDINES DE LA CRUZ, Guadalajara",20.637455,-103.380993
187,UNIDAD MEXICO,CDA QUERETARO,278,45120,Zapopan,"CDA QUERETARO 278, UNIDAD MEXICO, Zapopan",20.6804779,-103.4039896
18,AMERICANA,MEXICALLTZINGO,1944,44160,Guadalajara,"MEXICALLTZINGO 1944, AMERICANA, Guadalajara",20.668444,-103.3673828
208,RESIDENCIAL AZALEAS,SERVIDOR PUBLIC,1425,45230,Zapopan,"SERVIDOR PUBLIC 1425, RESIDENCIAL AZALEAS, Zapopan",20.61696815,-103.44837189
2,BOSQUES D LA CANTERA,PRIV OPALO,17,44306,Guadalajara,"PRIV OPALO 17, BOSQUES D LA CANTERA, Guadalajara",20.7155989,-103.3157318
69,JARDINES DE LA PAZ,TEJEDORES,569,44860,Guadalajara,"TEJEDORES 569, JARDINES DE LA PAZ, Guadalajara",20.647502,-103.3072318
22,GARIBAY,DAMASCO,785,44750,Guadalajara,"DAMASCO 785, GARIBAY, Guadalajara",20.6735769,-103.2949879
271,NUEVO MEXICO,COPALITA,2711,45138,Zapopan,"COPALITA 2711, NUEVO MEXICO, Zapopan",20.7647307,-103.43970355
15,OBLATOS PONIENTE,HACIENDA DE LAS,2299,44700,Guadalajara,"HACIENDA DE LAS 2299, OBLATOS PONIENTE, Guadalajara",20.6942949,-103.2973538
214,EL COLLY URBANO I,VOLCAN VESUBIO,2321,45070,Zapopan,"VOLCAN VESUBIO 2321, EL COLLY URBANO I, Zapopan",20.6413426,-103.4276583
231,RESIDENCIAL TESISTAN,AV SAN MATEO,1115,45200,Zapopan,"AV SAN MATEO 1115, RESIDENCIAL TESISTAN, Zapopan",20.7943479,-103.4683674
256,EL BRISE?,PASEO DE LA MAT,200,45236,Zapopan,"PASEO DE LA MAT 200, EL BRISE?, Zapopan",20.61881066,-103.43599554
206,FRACC CUSPIDE,SENDA DEL OCOTE,22,45200,Zapopan,"SENDA DEL OCOTE 22, FRACC CUSPIDE, Zapopan",20.85434258,-103.44456721
275,JARDINES D NVO MEXIC,SEGUNDA NORTE,5699,45138,Zapopan,"SEGUNDA NORTE 5699, JARDINES D NVO MEXIC, Zapopan",20.7695635,-103.4477057
49,EL MIRADOR,EMILIANO ZAPATA,780,44370,Guadalajara,"EMILIANO ZAPATA 780, EL MIRADOR, Guadalajara",20.684788,-103.3233951
167,CAMPO REAL,AV CAMPO REAL P,353,45134,Zapopan,"AV CAMPO REAL P 353, CAMPO REAL, Zapopan",20.78893521,-103.44364777
153,MIRAMAR,BAHIA MAGDALENA,5,45060,Zapopan,"BAHIA MAGDALENA 5, MIRAMAR, Zapopan",20.6407449,-103.4490608
149,EL FORTIN,ALAMO,1359,45066,Zapopan,"ALAMO 1359, EL FORTIN, Zapopan",20.6469306,-103.4548918
21,PENAL,PEDRO CELESTINO,482,44730,Guadalajara,"PEDRO CELESTINO 482, PENAL, Guadalajara",20.678154,-103.319812
130,LADRON DE GUEVARA,AVENIDA AMERICA,620,44600,Guadalajara,"AVENIDA AMERICA 620, LADRON DE GUEVARA, Guadalajara",20.6874428,-103.3731335
43,ARTESANOS,INDEPENDENCIA,919,44200,Guadalajara,"INDEPENDENCIA 919, ARTESANOS, Guadalajara",20.678064,-103.356838
37,SANTA TERESITA,ALFREDO CHAVERO,16,44600,Guadalajara,"ALFREDO CHAVERO 16, SANTA TERESITA, Guadalajara",20.683706,-103.368627
219,LOS ROBLES,CALLE LOS ROBLE,395,45134,Zapopan,"CALLE LOS ROBLE 395, LOS ROBLES, Zapopan",20.76709012,-103.43385955
242,BOSQUE ESCONDIDO,PASEO DE LOS AL,10,45180,Zapopan,"PASEO DE LOS AL 10, BOSQUE ESCONDIDO, Zapopan",20.7469871,-103.3822178
166,COLINAS D LA PRIMAVE,CASCADA,147,45066,Zapopan,"CASCADA 147, COLINAS D LA PRIMAVE, Zapopan",20.637151,-103.4700562
14,LADRON DE GUEVARA,AVENIDA MEXICO,2582,44600,Guadalajara,"AVENIDA MEXICO 2582, LADRON DE GUEVARA, Guadalajara",20.679539,-103.3821471
0,U H FOVISSSTE ESTADI,LISBOA,28,44307,Guadalajara,"LISBOA 28, U H FOVISSSTE ESTADI, Guadalajara",20.7108869,-103.3308462
147,LOMAS DE MIRAMAR,URANIO,31,45060,Zapopan,"URANIO 31, LOMAS DE MIRAMAR, Zapopan",20.64202975,-103.46426675
61,LA AURORA,SALVADOR LOPEZ,1750,44790,Guadalajara,"SALVADOR LOPEZ 1750, LA AURORA, Guadalajara",20.6494585,-103.3388108
244,SANTA ANA TEPETITLAN,HIDALGO,35,45230,Zapopan,"HIDALGO 35, SANTA ANA TEPETITLAN, Zapopan",20.6208991,-103.456008
222,LA ESTRADA,HIDALAGO,6,45200,Zapopan,"HIDALAGO 6, LA ESTRADA, Zapopan",20.79264101,-103.47565388
83,RINCONADA DEL BOSQUE,AV ECONOMOS,6951,44510,Guadalajara,"AV ECONOMOS 6951, RINCONADA DEL BOSQUE, Guadalajara",20.65605164,-103.39377594
13,SAN ANDRES,GOMEZ FARIAS,2319,44810,Guadalajara,"GOMEZ FARIAS 2319, SAN ANDRES, Guadalajara",20.66197709,-103.30791285
283,EL CENTINELA 2,HIDALGO,310,45187,Zapopan,"HIDALGO 310, EL CENTINELA 2, Zapopan",20.758003,-103.380373
229,VILLA FONTANA DIAMANTE,FUENTE GRAFITO,8884,45200,Zapopan,"FUENTE GRAFITO 8884, VILLA FONTANA DIAMANTE, Zapopan",20.7795959,-103.4746901
108,VILLA VICENTE GUERRE,ISLA USTICA,3318,44860,Guadalajara,"ISLA USTICA 3318, VILLA VICENTE GUERRE, Guadalajara",20.632482,-103.395812
48,RANCHO NUEVO,DOMINGO RAMIRE,1150,44240,Guadalajara,"DOMINGO RAMIRE 1150, RANCHO NUEVO, Guadalajara",20.7208786,-103.3313266
204,REAL DE VALDEPE?S,ALAMBIQUE,51,45130,Zapopan,"ALAMBIQUE 51, REAL DE VALDEPE?S, Zapopan",20.7560515,-103.4015362
259,JARDINES  DEL BOSQUE,PLACERES,806,44520,Zapopan,"PLACERES 806, JARDINES  DEL BOSQUE, Zapopan",20.6650289,-103.3922401
161,PRADOS  GUADALUPE,G ROSSINI,428,45030,Zapopan,"G ROSSINI 428, PRADOS  GUADALUPE, Zapopan",20.6686337,-103.4349976
164,VISTA HERMOSA,VISTA BONITA,739,45189,Zapopan,"VISTA BONITA 739, VISTA HERMOSA, Zapopan",20.762084,-103.334313
137,LOMAS DE RIO VERDE,DEMOSTENES,3550,44720,Guadalajara,"DEMOSTENES 3550, LOMAS DE RIO VERDE, Guadalajara",20.68517129,-103.28554658
77,DIVISION DEL NORTE,TERUEL,3693,44230,Guadalajara,"TERUEL 3693, DIVISION DEL NORTE, Guadalajara",20.721705,-103.3379679
47,GUADALUPANA,CELEDONIO PADIL,2162,44220,Guadalajara,"CELEDONIO PADIL 2162, GUADALUPANA, Guadalajara",20.7099819,-103.355384
243,REAL DE VALDEPE?S,RINCONADA DEL C,1327,45130,Zapopan,"RINCONADA DEL C 1327, REAL DE VALDEPE?S, Zapopan",20.75622519,-103.40385961
270,RESIDENC LA ESTANCIA,WOLFANG AMADEUS,5552,45030,Zapopan,"WOLFANG AMADEUS 5552, RESIDENC LA ESTANCIA, Zapopan",20.6731122,-103.431709
85,HERMOSA PROVIN ZO TE,TELEFONISTAS,3331,44770,Guadalajara,"TELEFONISTAS 3331, HERMOSA PROVIN ZO TE, Guadalajara",20.6684139,-103.2855688
189,EJIDAL LOMA BONITA,PEDRO MORENO,3308,45085,Zapopan,"PEDRO MORENO 3308, EJIDAL LOMA BONITA, Zapopan",20.6317603,-103.4051996
86,ARTESANOS,GENERAL EULOGIO,712,44200,Guadalajara,"GENERAL EULOGIO 712, ARTESANOS, Guadalajara",20.6872139,-103.3505809
118,U H LAZARO CARDENAS,OTHON BLANCO CA,4087,44490,Guadalajara,"OTHON BLANCO CA 4087, U H LAZARO CARDENAS, Guadalajara",20.6213652,-103.3783249
72,LADRON DE GUEVARA,FRAY LUIS DE PA,443,44600,Guadalajara,"FRAY LUIS DE PA 443, LADRON DE GUEVARA, Guadalajara",20.6842089,-103.379311
170,PASEOS DEL BRISE#O,PASEOS DE LOS I,1,45236,Zapopan,"PASEOS DE LOS I 1, PASEOS DEL BRISE#O, Zapopan",20.618144,-103.434739
258,ARENALES TAPATIOS,DIAMANTE,114,45066,Zapopan,"DIAMANTE 114, ARENALES TAPATIOS, Zapopan",20.6339582,-103.4563939
23,BALCONES DE OBLATOS,HACIENDA DEL CA,2275,44720,Guadalajara,"HACIENDA DEL CA 2275, BALCONES DE OBLATOS, Guadalajara",20.68696384,-103.28869462
142,18 DE MARZO,NATIVIDAD MACIA,1326,44960,Guadalajara,"NATIVIDAD MACIA 1326, 18 DE MARZO, Guadalajara",20.6332169,-103.3695316
157,RESIDENCIAL GUADALUP,MISION SAN PATR,350,45030,Zapopan,"MISION SAN PATR 350, RESIDENCIAL GUADALUP, Zapopan",20.6538728,-103.4331985
144,U H EL ZALATE,JOSE FERNANDEZ,1123,44760,Guadalajara,"JOSE FERNANDEZ 1123, U H EL ZALATE, Guadalajara",20.6790637,-103.2732273
66,BALCONES DE OBLATOS,ROSA RODRIGUEZ,3876,44720,Guadalajara,"ROSA RODRIGUEZ 3876, BALCONES DE OBLATOS, Guadalajara",20.6952319,-103.2769238
19,HERMOSA PROVIN ZO TE,ARQUIMIDES,630,44770,Guadalajara,"ARQUIMIDES 630, HERMOSA PROVIN ZO TE, Guadalajara",20.6711219,-103.2859288
139,JARDINES DE LA CRUZ,REYES CATOLICOS,2151,44950,Guadalajara,"REYES CATOLICOS 2151, JARDINES DE LA CRUZ, Guadalajara",20.64629179,-103.37634047
245,EL BRISE#O,CONSTELACION,7,45236,Zapopan,"CONSTELACION 7, EL BRISE#O, Zapopan",20.6229076,-103.4384665
65,1RO DE MAYO 1A SECCI,CARLOS A CARRIL,527,44970,Guadalajara,"CARLOS A CARRIL 527, 1RO DE MAYO 1A SECCI, Guadalajara",20.6230026,-103.3552397
67,LOMAS DE POLANCO,RAMON ALCORTA,1597,44960,Guadalajara,"RAMON ALCORTA 1597, LOMAS DE POLANCO, Guadalajara",20.6305508,-103.3684773
30,EL MANANTIAL S REFOR,AVDE LA PATRIA,202,44470,Guadalajara,"AVDE LA PATRIA 202, EL MANANTIAL S REFOR, Guadalajara",20.621289,-103.342166
195,ARENALES TAPATIOS,AV GUADALUPE,132,45066,Zapopan,"AV GUADALUPE 132, ARENALES TAPATIOS, Zapopan",20.6367828,-103.4602462
127,HELIODORO HERNANDEZ,MIGUEL SANCHEZ,3789,44720,Guadalajara,"MIGUEL SANCHEZ 3789, HELIODORO HERNANDEZ, Guadalajara",20.6948729,-103.278313
128,JARDINES DE LA CRUZ,AV ISALA RAZA,2460,44950,Guadalajara,"AV ISALA RAZA 2460, JARDINES DE LA CRUZ, Guadalajara",20.634922,-103.391242
134,CANTARRANAS,MIGUEL BERNAL,3327,44829,Guadalajara,"MIGUEL BERNAL 3327, CANTARRANAS, Guadalajara",20.65865637,-103.2906591
165,CANTEROS,PRIVADA CANTERO,1564,45190,Zapopan,"PRIVADA CANTERO 1564, CANTEROS, Zapopan",20.727049,-103.338664
191,LA MARTINICA,PASEO DE LOS AL,79,45185,Zapopan,"PASEO DE LOS AL 79, LA MARTINICA, Zapopan",20.749005,-103.3596259
57,LOS ALMENDROS,ANTONIO GARCIA,3912,44240,Guadalajara,"ANTONIO GARCIA 3912, LOS ALMENDROS, Guadalajara",20.71472097,-103.32988718
3,JARDINES DE LOS POET,JOSE FERNANDEZ,3365,44820,Guadalajara,"JOSE FERNANDEZ 3365, JARDINES DE LOS POET, Guadalajara",20.6484961,-103.29001645
44,MARAVILLA,MESA DEL NORTE,1272,44700,Guadalajara,"MESA DEL NORTE 1272, MARAVILLA, Guadalajara",20.6996615,-103.3042162
224,COPALITA,AV AMARANTO,175,45200,Zapopan,"AV AMARANTO 175, COPALITA, Zapopan",20.80905867,-103.45311198
38,MIRAVALLE II,HERMENEGILDO BU,4308,44990,Guadalajara,"HERMENEGILDO BU 4308, MIRAVALLE II, Guadalajara",20.6127044,-103.3450677
31,OBLATOS PONIENTE,JUAN PABLO II,3165,44700,Guadalajara,"JUAN PABLO II 3165, OBLATOS PONIENTE, Guadalajara",20.70162171,-103.28662543
135,TALPITA,SANTO TOMAS,1786,44719,Guadalajara,"SANTO TOMAS 1786, TALPITA, Guadalajara",20.68355178,-103.31008927
200,EL HUMEDO,RIO ACAPONETA,2,45200,Zapopan,"RIO ACAPONETA 2, EL HUMEDO, Zapopan",20.795757,-103.493083
4,LOMAS DEL GALLO,FERNANDO SOLIS,1338,44760,Guadalajara,"FERNANDO SOLIS 1338, LOMAS DEL GALLO, Guadalajara",20.67890219,-103.27083555
125,BARRANQUITAS,PINO SUAREZ,879,44270,Guadalajara,"PINO SUAREZ 879, BARRANQUITAS, Guadalajara",20.6901934,-103.346581
39,PROGRESO,FRANCISCO SARAB,235,44730,Guadalajara,"FRANCISCO SARAB 235, PROGRESO, Guadalajara",20.6687989,-103.3080091
101,JARDINES DEL NILO,MANUEL RIVERA C,2818,44860,Guadalajara,"MANUEL RIVERA C 2818, JARDINES DEL NILO, Guadalajara",20.6459499,-103.3015471
232,LAS AGUILAS,RIO TOMATLAN,800,45080,Zapopan,"RIO TOMATLAN 800, LAS AGUILAS, Zapopan",20.625904,-103.407993
257,PARQUES DE ZAPOPAN,OPALO,14,45138,Zapopan,"OPALO 14, PARQUES DE ZAPOPAN, Zapopan",20.7473862,-103.4188519
190,IXTLAHUACAN DEL RIO,HDA SAN MIGUEL,10,45260,Zapopan,"HDA SAN MIGUEL 10, IXTLAHUACAN DEL RIO, Zapopan",20.769279,-103.445288
123,DIVISION DEL NORTE,BENEDICTO LOPEZ,399,44230,Guadalajara,"BENEDICTO LOPEZ 399, DIVISION DEL NORTE, Guadalajara",20.7236763,-103.3371782
183,MESA DE LOS OCOTES,PASEO DE LOS PI,3153,45189,Zapopan,"PASEO DE LOS PI 3153, MESA DE LOS OCOTES, Zapopan",20.761889,-103.347178
34,MORELOS,PELICANO,1272,44910,Guadalajara,"PELICANO 1272, MORELOS, Guadalajara",20.6506979,-103.360933
255,VIGIA I,DEL CORRAL,604,45140,Zapopan,"DEL CORRAL 604, VIGIA I, Zapopan",20.7317015,-103.395332
264,EL ARENAL,PROLONGACION SA,43,45350,Zapopan,"PROLONGACION SA 43, EL ARENAL, Zapopan",20.74234227,-103.33373909
281,VILLA FONTANA DIAMANTE,AV LAS TORRES,1896,45200,Zapopan,"AV LAS TORRES 1896, VILLA FONTANA DIAMANTE, Zapopan",20.78039085,-103.4803915
27,SANTA ELENA,ASTURIAS,1581,44230,Guadalajara,"ASTURIAS 1581, SANTA ELENA, Guadalajara",20.7145639,-103.337542
78,RINCONADA DE HUENTITAN,JOSE MARIA CANA,5128,44250,Guadalajara,"JOSE MARIA CANA 5128, RINCONADA DE HUENTITAN, Guadalajara",20.731589,-103.324636
278,LOMAS DEL REFUGIO,AGUA PRIETA,111,45186,Zapopan,"AGUA PRIETA 111, LOMAS DEL REFUGIO, Zapopan",20.74929471,-103.34874768
148,LA FLORESTA DEL COLLI,BOULEVARD PUERT,26,45116,Zapopan,"BOULEVARD PUERT 26, LA FLORESTA DEL COLLI, Zapopan",20.70902792,-103.41388692
227,MESA COLORADA PTE,ANAHUAC,52,45189,Zapopan,"ANAHUAC 52, MESA COLORADA PTE, Zapopan",20.7593548,-103.3370537
150,FRACC CUSPIDE,VALLE DE TESIST,198,45200,Zapopan,"VALLE DE TESIST 198, FRACC CUSPIDE, Zapopan",20.795812,-103.4822218
60,SANTA ROSA,MELQUIADES CAMP,2289,44700,Guadalajara,"MELQUIADES CAMP 2289, SANTA ROSA, Guadalajara",20.702616,-103.287933
5,BATALLON SN PATRICIO,CALZADA INDEPEN,503,44300,Guadalajara,"CALZADA INDEPEN 503, BATALLON SN PATRICIO, Guadalajara",20.7137381,-103.32089456
158,LA FLORIDA,FLORAL,15,45234,Zapopan,"FLORAL 15, LA FLORIDA, Zapopan",20.5997014,-103.4273219
260,EL ARENAL,CUAUHTEMOC,132,45350,Zapopan,"CUAUHTEMOC 132, EL ARENAL, Zapopan",20.7250865,-103.3945404
263,INF LA TUZANIA,CAPULINES,40,45138,Zapopan,"CAPULINES 40, INF LA TUZANIA, Zapopan",20.731825,-103.418699
124,HIGUERILLAS,MARIANO RODRIGU,2669,44470,Guadalajara,"MARIANO RODRIGU 2669, HIGUERILLAS, Guadalajara",20.632835,-103.349006
75,GENERAL REAL,PENSADOR MEXICA,1070,44400,Guadalajara,"PENSADOR MEXICA 1070, GENERAL REAL, Guadalajara",20.665364,-103.3312438
181,CONDOMINIO MALAGA,AV CENTRAL,1351,45117,Zapopan,"AV CENTRAL 1351, CONDOMINIO MALAGA, Zapopan",20.6937778,-103.4324128
247,INF LA TUZANIA,AV DE LAS PALME,1246,45138,Zapopan,"AV DE LAS PALME 1246, INF LA TUZANIA, Zapopan",20.7416922,-103.4190553
94,MARAVILLA,SANTA JULIA,1334,44700,Guadalajara,"SANTA JULIA 1334, MARAVILLA, Guadalajara",20.6971499,-103.3048029
90,OBLATOS,BATALLA DE IZUC,2508,44700,Guadalajara,"BATALLA DE IZUC 2508, OBLATOS, Guadalajara",20.698347,-103.288479
282,REAL DE TESISTAN,PASEO DE LA ARB,176,45200,Zapopan,"PASEO DE LA ARB 176, REAL DE TESISTAN, Zapopan",20.6140105,-103.4564312
